*******************************************************************************
Maximum rise and set values

 Date_(ZONE)_HR:MN     Azi_(r-appr)_Elev   Illu% Ang-diam
*********************************************************
$$SOE
 2006-Sep-01 15:48 *r  128.3899  -0.1789  59.692 1860.828  <-- max S rise
 2006-Sep-01 20:09 Ct  179.8880  20.6457  61.008 1877.521
 2006-Sep-02 00:30  s  231.2205  -0.2515  62.309 1871.488  <-- max S set
 2006-Sep-02 16:49 *r  128.9762  -0.1369  70.258 1892.469
 2006-Sep-02 21:10 At  180.2990  20.5975  71.514 1909.887
 2006-Sep-03 01:31  s  231.6404  -0.2593  72.797 1903.794
 2006-Sep-03 17:42 *r  126.7904  -0.1143  80.123 1925.136
 2006-Sep-03 22:12  t  180.6737  22.4653  81.303 1944.095
 2006-Sep-04 02:42  s  234.8163  -0.2213  82.536 1936.633
 2006-Sep-04 18:26 *r  121.9640  -0.1049  88.646 1955.974
 2006-Sep-04 23:13  t  181.0851  26.2402  89.693 1977.096
 2006-Sep-05 04:00  s  240.6745  -0.2323  90.785 1966.665
 2006-Sep-05 19:02 *r  114.9607  -0.1233  95.156 1981.728
 2006-Sep-06 00:11  t  181.4200  31.6864  95.951 2005.181
 2006-Sep-06 05:21  s  248.6956  -0.3322  96.745 1990.125
 2006-Sep-06 19:32 *r  106.3863  -0.1906  99.043 1999.276
 2006-Sep-07 01:06  t  181.7655  38.3920  99.424 2024.680
 2006-Sep-07 06:41 Cs  257.9815  -0.3425  99.729 2003.800
 2006-Sep-07 19:59 Cr   96.9872  -0.1876  99.884 2006.419
 2006-Sep-08 01:58  t  181.9139  45.8468  99.685 2032.846
 2006-Sep-08 08:00 *s  267.9747  -0.3745  99.349 2005.615
 2006-Sep-08 20:25 Nr   87.3494  -0.1052  97.548 2002.277
 2006-Sep-09 02:48  t  181.7025  53.5056  96.657 2028.657
 2006-Sep-09 09:18 *s  277.9792  -0.3631  95.614 1995.504
 2006-Sep-09 20:51 Ar   77.8914  -0.0752  92.249 1987.552
 2006-Sep-10 03:39  t  181.7517  60.8331  90.637 2013.062
 2006-Sep-10 10:35 *s  287.3015  -0.2265  88.923 1975.320
 2006-Sep-10 21:18 Ar   69.0049  -0.2158  84.493 1964.389
 2006-Sep-11 04:31  t  181.5590  67.3388  82.226 1988.672
 2006-Sep-11 11:53 *s  295.6824  -0.2564  79.939 1947.896
 2006-Sep-11 21:51  r   61.6611  -0.0808  74.924 1936.046
 2006-Sep-12 05:25  t  181.1776  72.5985  72.175 1958.932
 2006-Sep-12 13:10 *s  302.4444  -0.3347  69.462 1916.850
 2006-Sep-12 22:29  r   55.9086  -0.1026  64.268 1905.332
 2006-Sep-13 06:21 Nt  180.5845  76.2843  61.247 1927.290
 2006-Sep-13 14:22 *s  306.8875  -0.3106  58.290 1885.534
 2006-Sep-13 23:14  r   52.2610  -0.2093  53.179 1874.942
 2006-Sep-14 07:19 *t  180.8480  78.2021  50.114 1896.570
 2006-Sep-14 15:26 *s  308.7496  -0.2547  47.118 1856.326
 2006-Sep-15 00:08  r   51.2526  -0.2036  42.220 1846.958  <-- max N rise
 2006-Sep-15 08:16 *t  180.7975  78.3266  39.337 1868.767
 2006-Sep-15 16:20 *s  308.0818  -0.2144  36.493 1830.701  <-- max N set
 2006-Sep-16 01:09  r   52.7848  -0.1460  31.888 1822.636
 2006-Sep-16 09:10 *t  180.1462  76.7984  29.349 1844.960
 2006-Sep-16 17:04 *s  305.2439  -0.2154  26.812 1809.340
 2006-Sep-17 02:13  r   56.3471  -0.1585  22.593 1802.569
 2006-Sep-17 10:00 *t  179.2781  73.8690  20.481 1825.508
 2006-Sep-17 17:40 *s  300.8104  -0.3259  18.356 1792.324
 2006-Sep-18 03:18  r   61.5807  -0.1225  14.640 1786.956
 2006-Sep-18 10:47 *t  179.2527  69.8349  12.986 1810.286
 2006-Sep-18 18:08 *s  294.9450  -0.2599  11.342 1779.638
 2006-Sep-19 04:21  r   67.8182  -0.1896   8.265 1775.514
 2006-Sep-19 11:31 *t  179.5004  64.9840   7.066 1798.949
 2006-Sep-19 18:32 *s  288.3538  -0.2801   5.915 1770.743
 2006-Sep-20 05:23  r   74.9262  -0.1355   3.629 1768.005
 2006-Sep-20 12:11 *t  179.0476  59.5739   2.878 1791.083
 2006-Sep-20 18:53 *s  281.2387  -0.2975   2.201 1765.316
 2006-Sep-21 06:23 Nr   82.4113  -0.1360   0.853 1763.958
 2006-Sep-21 12:50 *t  179.0205  53.8236   0.526 1786.320
 2006-Sep-21 19:12 *s  273.7807  -0.2596   0.282 1763.073
 2006-Sep-22 07:22 *r   90.0850  -0.1564   0.006 1763.116
 2006-Sep-22 13:28 *t  178.9016  47.9323   0.072 1784.450
 2006-Sep-22 19:31 Cs  266.3054  -0.3025   0.206 1763.751
 2006-Sep-23 08:21 *r   97.7574  -0.1883   1.112 1765.366
 2006-Sep-23 14:07 *t  179.0418  42.0872   1.526 1785.459
 2006-Sep-23 19:50 Cs  258.8289  -0.2613   1.973 1767.420
 2006-Sep-24 09:22 *r  105.3961  -0.0756   4.145 1770.871
 2006-Sep-24 14:47 *t  179.0630  36.4805   4.848 1789.533
 2006-Sep-24 20:11 Ns  251.6776  -0.2713   5.545 1774.142
 2006-Sep-25 10:24 *r  112.4887  -0.0810   9.025 1779.699
 2006-Sep-25 15:30 *t  179.2685  31.3212   9.953 1797.041
 2006-Sep-25 20:35 As  245.0347  -0.2789  10.837 1784.218
 2006-Sep-26 11:28 *r  118.8524  -0.0907  15.621 1792.249
 2006-Sep-26 16:16 *t  179.3905  26.8501  16.705 1808.456
 2006-Sep-26 21:04  s  239.2598  -0.3264  17.728 1797.969
 2006-Sep-27 12:33 *r  124.0302  -0.1452  23.742 1808.808
 2006-Sep-27 17:06 *t  179.5373  23.3426  24.927 1824.272
 2006-Sep-27 21:39  s  234.6030  -0.2724  26.052 1815.788
 2006-Sep-28 13:38 *r  127.6658  -0.1215  33.144 1829.617
 2006-Sep-28 18:00 *t  179.6920  21.0987  34.390 1844.843
 2006-Sep-28 22:23  s  231.6983  -0.2274  35.607 1837.781
 2006-Sep-29 14:39 *r  129.0907  -0.1323  43.502 1854.398
 2006-Sep-29 18:59 *t  180.2533  20.4027  44.811 1870.212
 2006-Sep-29 23:18  s  231.1338  -0.2414  46.124 1863.743
 2006-Sep-30 15:33 *r  127.9606  -0.1663  54.424 1882.435
 2006-Sep-30 19:58 Nt  180.4532  21.4581  55.798 1899.745
 2006-Oct-01 00:23  s  233.1289  -0.2285  57.227 1892.937
 2006-Oct-01 16:19 *r  124.3419  -0.1596  65.437 1912.416
 2006-Oct-01 20:58  t  180.9738  24.3185  66.879 1932.095
 2006-Oct-02 01:36  s  237.7416  -0.2572  68.404 1923.719
 2006-Oct-02 16:57 *r  118.4735  -0.1702  75.966 1942.236
 2006-Oct-02 21:55  t  181.2347  28.8656  77.428 1964.864
 2006-Oct-03 02:53  s  244.5446  -0.2809  78.978 1953.583
 2006-Oct-03 17:29 *r  110.8812  -0.1628  85.353 1969.241
 2006-Oct-03 22:50  t  181.6240  34.8265  86.731 1994.870
 2006-Oct-04 04:11  s  252.9742  -0.2749  88.148 1979.293
 2006-Oct-04 17:57 *r  102.0780  -0.1453  92.891 1990.384
 2006-Oct-04 23:42  t  181.7577  41.8180  94.013 2018.414
 2006-Oct-05 05:29  s  262.4899  -0.2719  95.098 1997.375
 2006-Oct-05 18:23 *r   92.5883  -0.1136  97.920 2002.808
 2006-Oct-06 00:33  t  181.9083  49.3769  98.584 2032.098
 2006-Oct-06 06:47 Ns  272.4985  -0.2635  99.131 2004.956
 2006-Oct-06 18:48 *r   82.8094  -0.1980  99.963 2004.433
 2006-Oct-07 01:24  t  181.9694  56.9864  99.979 2033.668
 2006-Oct-07 08:06 *s  282.4612  -0.3061  99.836 2000.520
 2006-Oct-07 19:15 Cr   73.4637  -0.2132  98.838 1994.899
 2006-Oct-08 02:16  t  181.7461  64.1028  98.082 2022.757
 2006-Oct-08 09:26 *s  291.6932  -0.3476  97.183 1984.543
 2006-Oct-08 19:46 Nr   65.1336  -0.1595  94.695 1975.343
 2006-Oct-09 03:11  t  181.7621  70.1921  93.153 2001.007
 2006-Oct-09 10:45 *s  299.3467  -0.2378  91.533 1959.427
 2006-Oct-09 20:22 Ar   58.2535  -0.1985  87.974 1948.150
 2006-Oct-10 04:08  t  181.2376  74.7923  85.756 1971.608
 2006-Oct-10 12:03 *s  305.1812  -0.3364  83.515 1928.313
 2006-Oct-10 21:06  r   53.5684  -0.1874  79.283 1916.589
 2006-Oct-11 05:07  t  180.7282  77.5791  76.598 1938.340
 2006-Oct-11 13:13 *s  308.2220  -0.2700  73.923 1895.240
 2006-Oct-11 21:59  r   51.5266  -0.1269  69.289 1883.871
 2006-Oct-12 06:06  t  180.2537  78.4373  66.398 1904.751
 2006-Oct-12 14:13 *s  308.5480  -0.2386  63.507 1863.226
 2006-Oct-12 22:59  r   52.0871  -0.1250  58.652 1852.717
 2006-Oct-13 07:03 Nt  180.0930  77.4750  55.787 1873.579
 2006-Oct-13 15:02 *s  306.4518  -0.2615  52.893 1834.504
 2006-Oct-14 00:03  r   54.9417  -0.1813  47.949 1825.186
 2006-Oct-14 07:56 *t  179.8106  74.9638  45.278 1846.591
 2006-Oct-14 15:41 *s  302.4340  -0.3119  42.556 1810.406
 2006-Oct-15 01:09  r   59.7584  -0.1234  37.642 1802.621
 2006-Oct-15 08:44 *t  179.1376  71.2390  35.271 1824.675
 2006-Oct-15 16:11 *s  296.8545  -0.2057  32.849 1791.628
 2006-Oct-16 02:13  r   65.7163  -0.1667  28.108 1785.446
 2006-Oct-16 09:29 *t  179.2699  66.6196  26.073 1808.040
 2006-Oct-16 16:37 *s  290.5814  -0.3042  24.018 1777.982
 2006-Oct-17 03:16  r   72.6709  -0.0566  19.617 1773.788
 2006-Oct-17 10:10 *t  178.9390  61.3783  17.949 1796.507
 2006-Oct-17 16:59 *s  283.6516  -0.3450  16.297 1769.381
 2006-Oct-18 04:16  r   79.9597  -0.1047  12.415 1767.115
 2006-Oct-18 10:50 *t  179.1830  55.7374  11.118 1789.613
 2006-Oct-18 17:18 *s  276.2270  -0.2411   9.886 1765.405
 2006-Oct-19 05:15  r   87.5475  -0.1366   6.701 1764.972
 2006-Oct-19 11:28 *t  178.9969  49.8905   5.787 1786.799
 2006-Oct-19 17:37 *s  268.7676  -0.2667   4.958 1765.330
 2006-Oct-20 06:14  r   95.2427  -0.1508   2.662 1766.743
 2006-Oct-20 12:06 *t  178.8352  44.0165   2.131 1787.487
 2006-Oct-20 17:56 *s  261.2759  -0.2534   1.680 1768.692
 2006-Oct-21 07:14 Nr  102.8519  -0.1499   0.460 1771.842
 2006-Oct-21 12:46 *t  178.9814  38.3021   0.296 1791.194
 2006-Oct-21 18:17 *s  254.0733  -0.3365   0.188 1774.916
 2006-Oct-22 08:16 *r  110.1763  -0.1115   0.219 1779.811
 2006-Oct-22 13:28 *t  179.0700  32.9569   0.390 1797.590
 2006-Oct-22 18:40 *s  247.1930  -0.3207   0.582 1783.743
 2006-Oct-23 09:20 *r  116.8629  -0.0918   2.010 1790.299
 2006-Oct-23 14:13 *t  179.1407  28.2244   2.469 1806.548
 2006-Oct-23 19:07 Ns  241.0045  -0.2790   2.915 1794.925
 2006-Oct-24 10:25 *r  122.4402  -0.1535   5.831 1803.118
 2006-Oct-24 15:03 *t  179.5296  24.3835   6.525 1818.163
 2006-Oct-24 19:40 As  235.9217  -0.2294   7.182 1808.413
 2006-Oct-25 11:30 *r  126.5366  -0.1915  11.597 1818.328
 2006-Oct-25 15:56 *t  179.7068  21.7353  12.477 1832.656
 2006-Oct-25 20:22  s  232.5805  -0.2876  13.325 1824.239
 2006-Oct-26 12:33 *r  128.7841  -0.0937  19.139 1836.052
 2006-Oct-26 16:53 *t  180.0865  20.5584  20.177 1850.324
 2006-Oct-26 21:13  s  231.2431  -0.2562  21.209 1842.640
$$EOE
*******************************************************************************
